[Satellite]
VERSION=1.1
NAME=FLOCK 3P-26
NICKNAME=FLOCK 3P-26
TLE1=1 41961U 17008P   18020.83699125  .00003002  00000-0  12744-3 0  9997
TLE2=2 41961  97.4689  86.3950 0009931 140.8600 219.3357 15.23829049 51502
